{"type": "FeatureCollection", "features": [ {"type": "Feature", "properties": {"norad_id": 58662, "name": "TIANMU-1 21", "group": "weather", "lat": 35.35313585618388, "lon": 108.31923348080907, "alt_km": 472.4075232473715, "timestamp": "2025-12-26T04:40:05.430494+00:00", "meta": {"OBJECT_NAME": "TIANMU-1 21", "OBJECT_ID": "2023-208C", "EPOCH": "2025-12-25T22:14:29.759712", "MEAN_MOTION": 15.31832485, "ECCENTRICITY": 0.00065056, "INCLINATION": 97.4374, "RA_OF_ASC_NODE": 113.368, "ARG_OF_PERICENTER": 206.0157, "MEAN_ANOMALY": 154.0759, "EPHEMERIS_TYPE": 0, "CLASSIFICATION_TYPE": "U", "NORAD_CAT_ID": 58662, "ELEMENT_SET_NO": 999, "REV_AT_EPOCH": 11101, "BSTAR": 0.00037839232, "MEAN_MOTION_DOT": 0.00011564, "MEAN_MOTION_DDOT": 0}, "tle": {"line1": "1 58662U 23208C   25359.92673333  .00011564  00000+0  37839-3 0  9991", "line2": "2 58662  97.4374 113.3680 0006505 206.0157 154.0759 15.31832485111017"}}, "geometry": {"type": "Point", "coordinates": [108.31923348080907, 35.35313585618388]}}, {"type": "Feature", "properties": {"norad_id": 58663, "name": "TIANMU-1 22", "group": "weather", "lat": 53.551843459301686, "lon": -58.5517084298994, "alt_km": 477.43413107023844, "timestamp": "2025-12-26T04:40:05.430510+00:00", "meta": {"OBJECT_NAME": "TIANMU-1 22", "OBJECT_ID": "2023-208D", "EPOCH": "2025-12-25T21:49:55.466400", "MEAN_MOTION": 15.2782515, "ECCENTRICITY": 0.00030289, "INCLINATION": 97.438, "RA_OF_ASC_NODE": 110.9755, "ARG_OF_PERICENTER": 220.1916, "MEAN_ANOMALY": 139.9099, "EPHEMERIS_TYPE": 0, "CLASSIFICATION_TYPE": "U", "NORAD_CAT_ID": 58663, "ELEMENT_SET_NO": 999, "REV_AT_EPOCH": 11084, "BSTAR": 0.00033194365, "MEAN_MOTION_DOT": 8.948e-05, "MEAN_MOTION_DDOT": 0}, "tle": {"line1": "1 58663U 23208D   25359.90966975  .00008948  00000+0  33194-3 0  9999", "line2": "2 58663  97.4380 110.9755 0003028 220.1916 139.9099 15.27825150110843"}}, "geometry": {"type": "Point", "coordinates": [-58.5517084298994, 53.551843459301686]}}, {"type": "Feature", "properties": {"norad_id": 58700, "name": "TIANMU-1 15", "group": "weather", "lat": 77.82089156501586, "lon": 39.01356773266729, "alt_km": 487.6348798503341, "timestamp": "2025-12-26T04:40:05.430526+00:00", "meta": {"OBJECT_NAME": "TIANMU-1 15", "OBJECT_ID": "2024-004A", "EPOCH": "2025-12-25T23:30:24.058368", "MEAN_MOTION": 15.24582108, "ECCENTRICITY": 0.00060982, "INCLINATION": 97.463, "RA_OF_ASC_NODE": 181.3994, "ARG_OF_PERICENTER": 233.8184, "MEAN_ANOMALY": 126.249, "EPHEMERIS_TYPE": 0, "CLASSIFICATION_TYPE": "U", "NORAD_CAT_ID": 58700, "ELEMENT_SET_NO": 999, "REV_AT_EPOCH": 10936, "BSTAR": 0.00030071108, "MEAN_MOTION_DOT": 7.343e-05, "MEAN_MOTION_DDOT": 0}, "tle": {"line1": "1 58700U 24004A   25359.97944512  .00007343  00000+0  30071-3 0  9995", "line2": "2 58700  97.4630 181.3994 0006098 233.8184 126.2490 15.24582108109367"}}, "geometry": {"type": "Point", "coordinates": [39.01356773266729, 77.82089156501586]}}, {"type": "Feature", "properties": {"norad_id": 58701, "name": "TIANMU-1 16", "group": "weather", "lat": -2.5627565943741124, "lon": 0.6556839508108547, "alt_km": 493.51228237075065, "timestamp": "2025-12-26T04:40:05.430545+00:00", "meta": {"OBJECT_NAME": "TIANMU-1 16", "OBJECT_ID": "2024-004B", "EPOCH": "2025-12-25T23:08:40.043904", "MEAN_MOTION": 15.24609359, "ECCENTRICITY": 0.00044371, "INCLINATION": 97.457, "RA_OF_ASC_NODE": 180.7625, "ARG_OF_PERICENTER": 235.6994, "MEAN_ANOMALY": 124.3824, "EPHEMERIS_TYPE": 0, "CLASSIFICATION_TYPE": "U", "NORAD_CAT_ID": 58701, "ELEMENT_SET_NO": 999, "REV_AT_EPOCH": 10936, "BSTAR": 0.00028579493, "MEAN_MOTION_DOT": 6.979e-05, "MEAN_MOTION_DDOT": 0}, "tle": {"line1": "1 58701U 24004B   25359.96435236  .00006979  00000+0  28579-3 0  9997", "line2": "2 58701  97.4570 180.7625 0004437 235.6994 124.3824 15.24609359109367"}}, "geometry": {"type": "Point", "coordinates": [0.6556839508108547, -2.5627565943741124]}}, {"type": "Feature", "properties": {"norad_id": 58702, "name": "TIANMU-1 17", "group": "weather", "lat": -82.48486869097007, "lon": -81.969722306121, "alt_km": 497.1277080628706, "timestamp": "2025-12-26T04:40:05.430561+00:00", "meta": {"OBJECT_NAME": "TIANMU-1 17", "OBJECT_ID": "2024-004C", "EPOCH": "2025-12-25T22:45:56.486880", "MEAN_MOTION": 15.2465173, "ECCENTRICITY": 0.00036057, "INCLINATION": 97.4604, "RA_OF_ASC_NODE": 181.1637, "ARG_OF_PERICENTER": 236.3797, "MEAN_ANOMALY": 123.7096, "EPHEMERIS_TYPE": 0, "CLASSIFICATION_TYPE": "U", "NORAD_CAT_ID": 58702, "ELEMENT_SET_NO": 999, "REV_AT_EPOCH": 10935, "BSTAR": 0.00028033854, "MEAN_MOTION_DOT": 6.852e-05, "MEAN_MOTION_DDOT": 0}, "tle": {"line1": "1 58702U 24004C   25359.94857045  .00006852  00000+0  28034-3 0  9998", "line2": "2 58702  97.4604 181.1637 0003605 236.3797 123.7096 15.24651730109352"}}, "geometry": {"type": "Point", "coordinates": [-81.969722306121, -82.48486869097007]}}, {"type": "Feature", "properties": {"norad_id": 58703, "name": "TIANMU-1 18", "group": "weather", "lat": -0.19331636013310252, "lon": -178.36790763751497, "alt_km": 496.26106010268086, "timestamp": "2025-12-26T04:40:05.430577+00:00", "meta": {"OBJECT_NAME": "TIANMU-1 18", "OBJECT_ID": "2024-004D", "EPOCH": "2025-12-25T22:22:06.267936", "MEAN_MOTION": 15.24634513, "ECCENTRICITY": 0.00030053, "INCLINATION": 97.4621, "RA_OF_ASC_NODE": 181.3453, "ARG_OF_PERICENTER": 232.8958, "MEAN_ANOMALY": 127.2005, "EPHEMERIS_TYPE": 0, "CLASSIFICATION_TYPE": "U", "NORAD_CAT_ID": 58703, "ELEMENT_SET_NO": 999, "REV_AT_EPOCH": 10935, "BSTAR": 0.00030862925, "MEAN_MOTION_DOT": 7.548e-05, "MEAN_MOTION_DDOT": 0}, "tle": {"line1": "1 58703U 24004D   25359.93201699  .00007548  00000+0  30863-3 0  9992", "line2": "2 58703  97.4621 181.3453 0003005 232.8958 127.2005 15.24634513109353"}}, "geometry": {"type": "Point", "coordinates": [-178.36790763751497, -0.19331636013310252]}}, {"type": "Feature", "properties": {"norad_id": 58990, "name": "INSAT-3DS", "group": "weather", "lat": 0.01639663936888862, "lon": -112.94022441824674, "alt_km": 35781.471604558355, "timestamp": "2025-12-26T04:40:05.430595+00:00", "meta": {"OBJECT_NAME": "INSAT-3DS", "OBJECT_ID": "2024-033A", "EPOCH": "2025-12-25T21:36:38.577600", "MEAN_MOTION": 1.00271067, "ECCENTRICITY": 0.00013046, "INCLINATION": 0.0618, "RA_OF_ASC_NODE": 99.1945, "ARG_OF_PERICENTER": 176.9675, "MEAN_ANOMALY": 224.761, "EPHEMERIS_TYPE": 0, "CLASSIFICATION_TYPE": "U", "NORAD_CAT_ID": 58990, "ELEMENT_SET_NO": 999, "REV_AT_EPOCH": 4533, "BSTAR": 0, "MEAN_MOTION_DOT": -1.34e-06, "MEAN_MOTION_DDOT": 0}, "tle": {"line1": "1 58990U 24033A   25359.90044650 -.00000134  00000+0  00000+0 0  9992", "line2": "2 58990   0.0618  99.1945 0001304 176.9675 224.7610  1.00271067 45335"}}, "geometry": {"type": "Point", "coordinates": [-112.94022441824674, 0.01639663936888862]}}, {"type": "Feature", "properties": {"norad_id": 59051, "name": "METEOR-M2 4", "group": "weather", "lat": -79.88485313572751, "lon": 15.779327615852198, "alt_km": 821.1968053169403, "timestamp": "2025-12-26T04:40:05.430616+00:00", "meta": {"OBJECT_NAME": "METEOR-M2 4", "OBJECT_ID": "2024-039A", "EPOCH": "2025-12-26T00:00:04.092768", "MEAN_MOTION": 14.22403295, "ECCENTRICITY": 0.00063563, "INCLINATION": 98.6785, "RA_OF_ASC_NODE": 316.7022, "ARG_OF_PERICENTER": 318.438, "MEAN_ANOMALY": 41.6314, "EPHEMERIS_TYPE": 0, "CLASSIFICATION_TYPE": "U", "NORAD_CAT_ID": 59051, "ELEMENT_SET_NO": 999, "REV_AT_EPOCH": 9464, "BSTAR": 3.9903539e-05, "MEAN_MOTION_DOT": 4.5e-07, "MEAN_MOTION_DDOT": 0}, "tle": {"line1": "1 59051U 24039A   25360.00004737  .00000045  00000+0  39904-4 0  9992", "line2": "2 59051  98.6785 316.7022 0006356 318.4380  41.6314 14.22403295 94647"}}, "geometry": {"type": "Point", "coordinates": [15.779327615852198, -79.88485313572751]}}, {"type": "Feature", "properties": {"norad_id": 60133, "name": "GOES 19", "group": "weather", "lat": -0.004382248873752775, "lon": 89.78202009088746, "alt_km": 35789.15718824706, "timestamp": "2025-12-26T04:40:05.430634+00:00", "meta": {"OBJECT_NAME": "GOES 19", "OBJECT_ID": "2024-119A", "EPOCH": "2025-12-25T04:31:42.625056", "MEAN_MOTION": 1.0027105, "ECCENTRICITY": 0.00010365, "INCLINATION": 0.0152, "RA_OF_ASC_NODE": 183.0311, "ARG_OF_PERICENTER": 137.5029, "MEAN_ANOMALY": 126.1624, "EPHEMERIS_TYPE": 0, "CLASSIFICATION_TYPE": "U", "NORAD_CAT_ID": 60133, "ELEMENT_SET_NO": 999, "REV_AT_EPOCH": 521, "BSTAR": 0, "MEAN_MOTION_DOT": -2.27e-06, "MEAN_MOTION_DDOT": 0}, "tle": {"line1": "1 60133U 24119A   25359.18868779 -.00000227  00000+0  00000+0 0  9998", "line2": "2 60133   0.0152 183.0311 0001036 137.5029 126.1624  1.00271050  5213"}}, "geometry": {"type": "Point", "coordinates": [89.78202009088746, -0.004382248873752775]}}, {"type": "Feature", "properties": {"norad_id": 65815, "name": "FENGYUN 3H", "group": "weather", "lat": 32.889125248445964, "lon": -66.16228343362617, "alt_km": 823.4621042874014, "timestamp": "2025-12-26T04:40:05.430651+00:00", "meta": {"OBJECT_NAME": "FENGYUN 3H", "OBJECT_ID": "2025-219A", "EPOCH": "2025-12-25T21:44:49.027200", "MEAN_MOTION": 14.19908122, "ECCENTRICITY": 8.575e-05, "INCLINATION": 98.6602, "RA_OF_ASC_NODE": 299.2116, "ARG_OF_PERICENTER": 109.7072, "MEAN_ANOMALY": 250.4197, "EPHEMERIS_TYPE": 0, "CLASSIFICATION_TYPE": "U", "NORAD_CAT_ID": 65815, "ELEMENT_SET_NO": 999, "REV_AT_EPOCH": 1279, "BSTAR": 6.4604567e-05, "MEAN_MOTION_DOT": 9.4e-07, "MEAN_MOTION_DDOT": 0}, "tle": {"line1": "1 65815U 25219A   25359.90612300  .00000094  00000+0  64605-4 0  9996", "line2": "2 65815  98.6602 299.2116 0000857 109.7072 250.4197 14.19908122 12798"}}, "geometry": {"type": "Point", "coordinates": [-66.16228343362617, 32.889125248445964]}}]}